[
  {
    "COMMENT": "GENERATED VIA SPACETRACK.ORG API",
    "ORIGINATOR": "18 SPCS",
    "NORAD_CAT_ID": "27421",
    "OBJECT_NAME": "SPOT 5",
    "OBJECT_TYPE": "PAYLOAD",
    "CLASSIFICATION_TYPE": "U",
    "INTLDES": "02021A",
    "EPOCH": "2023-06-03 04:30:10",
    "EPOCH_MICROSECONDS": "352448",
    "MEAN_MOTION": "14.52641869",
    "ECCENTRICITY": "0.0135171",
    "INCLINATION": "98.1399",
    "RA_OF_ASC_NODE": "217.5998",
    "ARG_OF_PERICENTER": "116.8782",
    "MEAN_ANOMALY": "244.6304",
    "EPHEMERIS_TYPE": "0",
    "ELEMENT_SET_NO": "999",
    "REV_AT_EPOCH": "10161",
    "BSTAR": "0.000096618",
    "MEAN_MOTION_DOT": "0.00000397",
    "MEAN_MOTION_DDOT": "0",
    "FILE": "3923899",
    "TLE_LINE0": "0 SPOT 5",
    "TLE_LINE1": "1 27421U 02021A   23154.18761982  .00000397  00000-0  96618-4 0  9991",
    "TLE_LINE2": "2 27421  98.1399 217.5998 0135171 116.8782 244.6304 14.52641869101617",
    "OBJECT_ID": "2002-021A",
    "OBJECT_NUMBER": "27421",
    "SEMIMAJOR_AXIS": "7095.170",
    "PERIOD": "99.130",
    "APOGEE": "812.941",
    "PERIGEE": "621.129",
    "DECAYED": "0"
  },
  {
    "COMMENT": "GENERATED VIA SPACETRACK.ORG API",
    "ORIGINATOR": "18 SPCS",
    "NORAD_CAT_ID": "27421",
    "OBJECT_NAME": "SPOT 5",
    "OBJECT_TYPE": "PAYLOAD",
    "CLASSIFICATION_TYPE": "U",
    "INTLDES": "02021A",
    "EPOCH": "2023-06-03 04:30:10",
    "EPOCH_MICROSECONDS": "352448",
    "MEAN_MOTION": "14.52641869",
    "ECCENTRICITY": "0.0135171",
    "INCLINATION": "98.1399",
    "RA_OF_ASC_NODE": "217.5998",
    "ARG_OF_PERICENTER": "116.8782",
    "MEAN_ANOMALY": "244.6304",
    "EPHEMERIS_TYPE": "0",
    "ELEMENT_SET_NO": "999",
    "REV_AT_EPOCH": "10157",
    "BSTAR": "0.000096618",
    "MEAN_MOTION_DOT": "0.00000397",
    "MEAN_MOTION_DDOT": "0",
    "FILE": "3924076",
    "TLE_LINE0": "0 SPOT 5",
    "TLE_LINE1": "1 27421U 02021A   23154.18761982  .00000397  00000-0  96618-4 0  9991",
    "TLE_LINE2": "2 27421  98.1399 217.5998 0135171 116.8782 244.6304 14.52641869101572",
    "OBJECT_ID": "2002-021A",
    "OBJECT_NUMBER": "27421",
    "SEMIMAJOR_AXIS": "7095.170",
    "PERIOD": "99.130",
    "APOGEE": "812.941",
    "PERIGEE": "621.129",
    "DECAYED": "0"
  },
  {
    "COMMENT": "GENERATED VIA SPACETRACK.ORG API",
    "ORIGINATOR": "18 SPCS",
    "NORAD_CAT_ID": "27421",
    "OBJECT_NAME": "SPOT 5",
    "OBJECT_TYPE": "PAYLOAD",
    "CLASSIFICATION_TYPE": "U",
    "INTLDES": "02021A",
    "EPOCH": "2023-06-03 17:43:41",
    "EPOCH_MICROSECONDS": "59488",
    "MEAN_MOTION": "14.52642188",
    "ECCENTRICITY": "0.0135191",
    "INCLINATION": "98.1399",
    "RA_OF_ASC_NODE": "218.1348",
    "ARG_OF_PERICENTER": "115.1916",
    "MEAN_ANOMALY": "246.3368",
    "EPHEMERIS_TYPE": "0",
    "ELEMENT_SET_NO": "999",
    "REV_AT_EPOCH": "10169",
    "BSTAR": "0.00009006",
    "MEAN_MOTION_DOT": "0.00000367",
    "MEAN_MOTION_DDOT": "0",
    "FILE": "3924175",
    "TLE_LINE0": "0 SPOT 5",
    "TLE_LINE1": "1 27421U 02021A   23154.73866967  .00000367  00000-0  90060-4 0  9993",
    "TLE_LINE2": "2 27421  98.1399 218.1348 0135191 115.1916 246.3368 14.52642188101698",
    "OBJECT_ID": "2002-021A",
    "OBJECT_NUMBER": "27421",
    "SEMIMAJOR_AXIS": "7095.169",
    "PERIOD": "99.130",
    "APOGEE": "812.954",
    "PERIGEE": "621.114",
    "DECAYED": "0"
  },
  {
    "COMMENT": "GENERATED VIA SPACETRACK.ORG API",
    "ORIGINATOR": "18 SPCS",
    "NORAD_CAT_ID": "27421",
    "OBJECT_NAME": "SPOT 5",
    "OBJECT_TYPE": "PAYLOAD",
    "CLASSIFICATION_TYPE": "U",
    "INTLDES": "02021A",
    "EPOCH": "2023-06-03 17:43:41",
    "EPOCH_MICROSECONDS": "59488",
    "MEAN_MOTION": "14.52642188",
    "ECCENTRICITY": "0.0135191",
    "INCLINATION": "98.1399",
    "RA_OF_ASC_NODE": "218.1348",
    "ARG_OF_PERICENTER": "115.1916",
    "MEAN_ANOMALY": "246.3368",
    "EPHEMERIS_TYPE": "0",
    "ELEMENT_SET_NO": "999",
    "REV_AT_EPOCH": "10165",
    "BSTAR": "0.00009006",
    "MEAN_MOTION_DOT": "0.00000367",
    "MEAN_MOTION_DDOT": "0",
    "FILE": "3924324",
    "TLE_LINE0": "0 SPOT 5",
    "TLE_LINE1": "1 27421U 02021A   23154.73866967  .00000367  00000-0  90060-4 0  9993",
    "TLE_LINE2": "2 27421  98.1399 218.1348 0135191 115.1916 246.3368 14.52642188101654",
    "OBJECT_ID": "2002-021A",
    "OBJECT_NUMBER": "27421",
    "SEMIMAJOR_AXIS": "7095.169",
    "PERIOD": "99.130",
    "APOGEE": "812.954",
    "PERIGEE": "621.114",
    "DECAYED": "0"
  },
  {
    "COMMENT": "GENERATED VIA SPACETRACK.ORG API",
    "ORIGINATOR": "18 SPCS",
    "NORAD_CAT_ID": "27421",
    "OBJECT_NAME": "SPOT 5",
    "OBJECT_TYPE": "PAYLOAD",
    "CLASSIFICATION_TYPE": "U",
    "INTLDES": "02021A",
    "EPOCH": "2023-06-04 01:59:37",
    "EPOCH_MICROSECONDS": "723200",
    "MEAN_MOTION": "14.5264252",
    "ECCENTRICITY": "0.0135192",
    "INCLINATION": "98.14",
    "RA_OF_ASC_NODE": "218.4691",
    "ARG_OF_PERICENTER": "114.1426",
    "MEAN_ANOMALY": "247.3975",
    "EPHEMERIS_TYPE": "0",
    "ELEMENT_SET_NO": "999",
    "REV_AT_EPOCH": "10174",
    "BSTAR": "0.000090759",
    "MEAN_MOTION_DOT": "0.0000037",
    "MEAN_MOTION_DDOT": "0",
    "FILE": "3924484",
    "TLE_LINE0": "0 SPOT 5",
    "TLE_LINE1": "1 27421U 02021A   23155.08307550  .00000370  00000-0  90759-4 0  9999",
    "TLE_LINE2": "2 27421  98.1400 218.4691 0135192 114.1426 247.3975 14.52642520101742",
    "OBJECT_ID": "2002-021A",
    "OBJECT_NUMBER": "27421",
    "SEMIMAJOR_AXIS": "7095.168",
    "PERIOD": "99.130",
    "APOGEE": "812.954",
    "PERIGEE": "621.112",
    "DECAYED": "0"
  },
  {
    "COMMENT": "GENERATED VIA SPACETRACK.ORG API",
    "ORIGINATOR": "18 SPCS",
    "NORAD_CAT_ID": "27421",
    "OBJECT_NAME": "SPOT 5",
    "OBJECT_TYPE": "PAYLOAD",
    "CLASSIFICATION_TYPE": "U",
    "INTLDES": "02021A",
    "EPOCH": "2023-06-04 03:38:49",
    "EPOCH_MICROSECONDS": "60608",
    "MEAN_MOTION": "14.52642589",
    "ECCENTRICITY": "0.01352",
    "INCLINATION": "98.14",
    "RA_OF_ASC_NODE": "218.536",
    "ARG_OF_PERICENTER": "113.931",
    "MEAN_ANOMALY": "247.6114",
    "EPHEMERIS_TYPE": "0",
    "ELEMENT_SET_NO": "999",
    "REV_AT_EPOCH": "10175",
    "BSTAR": "0.000091529",
    "MEAN_MOTION_DOT": "0.00000374",
    "MEAN_MOTION_DDOT": "0",
    "FILE": "3924715",
    "TLE_LINE0": "0 SPOT 5",
    "TLE_LINE1": "1 27421U 02021A   23155.15195672  .00000374  00000-0  91529-4 0  9997",
    "TLE_LINE2": "2 27421  98.1400 218.5360 0135200 113.9310 247.6114 14.52642589101759",
    "OBJECT_ID": "2002-021A",
    "OBJECT_NUMBER": "27421",
    "SEMIMAJOR_AXIS": "7095.168",
    "PERIOD": "99.130",
    "APOGEE": "812.959",
    "PERIGEE": "621.106",
    "DECAYED": "0"
  },
  {
    "COMMENT": "GENERATED VIA SPACETRACK.ORG API",
    "ORIGINATOR": "18 SPCS",
    "NORAD_CAT_ID": "27421",
    "OBJECT_NAME": "SPOT 5",
    "OBJECT_TYPE": "PAYLOAD",
    "CLASSIFICATION_TYPE": "U",
    "INTLDES": "02021A",
    "EPOCH": "2023-06-04 03:38:49",
    "EPOCH_MICROSECONDS": "60608",
    "MEAN_MOTION": "14.52642589",
    "ECCENTRICITY": "0.01352",
    "INCLINATION": "98.14",
    "RA_OF_ASC_NODE": "218.536",
    "ARG_OF_PERICENTER": "113.931",
    "MEAN_ANOMALY": "247.6114",
    "EPHEMERIS_TYPE": "0",
    "ELEMENT_SET_NO": "999",
    "REV_AT_EPOCH": "10171",
    "BSTAR": "0.000091529",
    "MEAN_MOTION_DOT": "0.00000374",
    "MEAN_MOTION_DDOT": "0",
    "FILE": "3924842",
    "TLE_LINE0": "0 SPOT 5",
    "TLE_LINE1": "1 27421U 02021A   23155.15195672  .00000374  00000-0  91529-4 0  9997",
    "TLE_LINE2": "2 27421  98.1400 218.5360 0135200 113.9310 247.6114 14.52642589101715",
    "OBJECT_ID": "2002-021A",
    "OBJECT_NUMBER": "27421",
    "SEMIMAJOR_AXIS": "7095.168",
    "PERIOD": "99.130",
    "APOGEE": "812.959",
    "PERIGEE": "621.106",
    "DECAYED": "0"
  },
  {
    "COMMENT": "GENERATED VIA SPACETRACK.ORG API",
    "ORIGINATOR": "18 SPCS",
    "NORAD_CAT_ID": "27421",
    "OBJECT_NAME": "SPOT 5",
    "OBJECT_TYPE": "PAYLOAD",
    "CLASSIFICATION_TYPE": "U",
    "INTLDES": "02021A",
    "EPOCH": "2023-06-04 18:31:31",
    "EPOCH_MICROSECONDS": "27296",
    "MEAN_MOTION": "14.52642983",
    "ECCENTRICITY": "0.0135215",
    "INCLINATION": "98.14",
    "RA_OF_ASC_NODE": "219.1378",
    "ARG_OF_PERICENTER": "112.0363",
    "MEAN_ANOMALY": "249.5259",
    "EPHEMERIS_TYPE": "0",
    "ELEMENT_SET_NO": "999",
    "REV_AT_EPOCH": "10184",
    "BSTAR": "0.0000856",
    "MEAN_MOTION_DOT": "0.00000346",
    "MEAN_MOTION_DDOT": "0",
    "FILE": "3925040",
    "TLE_LINE0": "0 SPOT 5",
    "TLE_LINE1": "1 27421U 02021A   23155.77188689  .00000346  00000-0  85600-4 0  9997",
    "TLE_LINE2": "2 27421  98.1400 219.1378 0135215 112.0363 249.5259 14.52642983101848",
    "OBJECT_ID": "2002-021A",
    "OBJECT_NUMBER": "27421",
    "SEMIMAJOR_AXIS": "7095.166",
    "PERIOD": "99.130",
    "APOGEE": "812.969",
    "PERIGEE": "621.094",
    "DECAYED": "0"
  },
  {
    "COMMENT": "GENERATED VIA SPACETRACK.ORG API",
    "ORIGINATOR": "18 SPCS",
    "NORAD_CAT_ID": "27421",
    "OBJECT_NAME": "SPOT 5",
    "OBJECT_TYPE": "PAYLOAD",
    "CLASSIFICATION_TYPE": "U",
    "INTLDES": "02021A",
    "EPOCH": "2023-06-04 21:49:53",
    "EPOCH_MICROSECONDS": "679648",
    "MEAN_MOTION": "14.5264307",
    "ECCENTRICITY": "0.0135219",
    "INCLINATION": "98.14",
    "RA_OF_ASC_NODE": "219.2716",
    "ARG_OF_PERICENTER": "111.6155",
    "MEAN_ANOMALY": "249.9509",
    "EPHEMERIS_TYPE": "0",
    "ELEMENT_SET_NO": "999",
    "REV_AT_EPOCH": "10182",
    "BSTAR": "0.000084505",
    "MEAN_MOTION_DOT": "0.00000341",
    "MEAN_MOTION_DDOT": "0",
    "FILE": "3925173",
    "TLE_LINE0": "0 SPOT 5",
    "TLE_LINE1": "1 27421U 02021A   23155.90964907  .00000341  00000-0  84505-4 0  9995",
    "TLE_LINE2": "2 27421  98.1400 219.2716 0135219 111.6155 249.9509 14.52643070101821",
    "OBJECT_ID": "2002-021A",
    "OBJECT_NUMBER": "27421",
    "SEMIMAJOR_AXIS": "7095.166",
    "PERIOD": "99.130",
    "APOGEE": "812.971",
    "PERIGEE": "621.091",
    "DECAYED": "0"
  }
]